{
    "links": {
        "self": "http://www.neowsapp.com/rest/v1/neo/3986767?api_key=iIulBulltgU6a56xZRHN4H3l9WmuAYTsLGpBGhQ2"
    },
    "id": "3986767",
    "neo_reference_id": "3986767",
    "name": "(2020 BP1)",
    "designation": "2020 BP1",
    "nasa_jpl_url": "http://ssd.jpl.nasa.gov/sbdb.cgi?sstr=3986767",
    "absolute_magnitude_h": 27.218,
    "estimated_diameter": {
        "kilometers": {
            "estimated_diameter_min": 0.0095709484,
            "estimated_diameter_max": 0.0214012913
        },
        "meters": {
            "estimated_diameter_min": 9.5709484394,
            "estimated_diameter_max": 21.4012913197
        },
        "miles": {
            "estimated_diameter_min": 0.0059471098,
            "estimated_diameter_max": 0.0132981418
        },
        "feet": {
            "estimated_diameter_min": 31.400750478,
            "estimated_diameter_max": 70.2142126134
        }
    },
    "is_potentially_hazardous_asteroid": false,
    "close_approach_data": [
        {
            "close_approach_date": "2015-12-14",
            "close_approach_date_full": "2015-Dec-14 03:02",
            "epoch_date_close_approach": 1450062120000,
            "relative_velocity": {
                "kilometers_per_second": "15.8268586263",
                "kilometers_per_hour": "56976.6910545698",
                "miles_per_hour": "35403.100061102"
            },
            "miss_distance": {
                "astronomical": "0.373864659",
                "lunar": "145.433352351",
                "kilometers": "55929356.65467633",
                "miles": "34752890.712260154"
            },
            "orbiting_body": "Earth"
        },
        {
            "close_approach_date": "2017-12-26",
            "close_approach_date_full": "2017-Dec-26 13:01",
            "epoch_date_close_approach": 1514293260000,
            "relative_velocity": {
                "kilometers_per_second": "9.9782175232",
                "kilometers_per_hour": "35921.5830836613",
                "miles_per_hour": "22320.2747777339"
            },
            "miss_distance": {
                "astronomical": "0.1808554294",
                "lunar": "70.3527620366",
                "kilometers": "27055587.016175378",
                "miles": "16811562.2093530964"
            },
            "orbiting_body": "Earth"
        },
        {
            "close_approach_date": "2020-01-21",
            "close_approach_date_full": "2020-Jan-21 07:35",
            "epoch_date_close_approach": 1579592100000,
            "relative_velocity": {
                "kilometers_per_second": "5.2035229335",
                "kilometers_per_hour": "18732.6825605802",
                "miles_per_hour": "11639.7604499339"
            },
            "miss_distance": {
                "astronomical": "0.0356484478",
                "lunar": "13.8672461942",
                "kilometers": "5332931.859686186",
                "miles": "3313730.1978979268"
            },
            "orbiting_body": "Earth"
        },
        {
            "close_approach_date": "2022-02-28",
            "close_approach_date_full": "2022-Feb-28 03:24",
            "epoch_date_close_approach": 1646018640000,
            "relative_velocity": {
                "kilometers_per_second": "8.3984510379",
                "kilometers_per_hour": "30234.4237363977",
                "miles_per_hour": "18786.4951266522"
            },
            "miss_distance": {
                "astronomical": "0.1514862885",
                "lunar": "58.9281662265",
                "kilometers": "22662026.093805495",
                "miles": "14081530.045466031"
            },
            "orbiting_body": "Earth"
        },
        {
            "close_approach_date": "2024-03-15",
            "close_approach_date_full": "2024-Mar-15 06:05",
            "epoch_date_close_approach": 1710482700000,
            "relative_velocity": {
                "kilometers_per_second": "14.0676707016",
                "kilometers_per_hour": "50643.6145258716",
                "miles_per_hour": "31467.9725924784"
            },
            "miss_distance": {
                "astronomical": "0.3274285147",
                "lunar": "127.3696922183",
                "kilometers": "48982608.376383689",
                "miles": "30436381.4913213482"
            },
            "orbiting_body": "Earth"
        }
    ],
    "orbital_data": {
        "orbit_id": "4",
        "orbit_determination_date": "2020-02-03 05:39:08",
        "first_observation_date": "2020-01-19",
        "last_observation_date": "2020-02-02",
        "data_arc_in_days": 14,
        "observations_used": 29,
        "orbit_uncertainty": "7",
        "minimum_orbit_intersection": ".0357247",
        "jupiter_tisserand_invariant": "4.277",
        "epoch_osculation": "2459000.5",
        "eccentricity": ".3669044768040404",
        "semi_major_axis": "1.601953820244447",
        "inclination": "4.740272974449177",
        "ascending_node_longitude": "110.5726632271181",
        "orbital_period": "740.5824490512057",
        "perihelion_distance": "1.014189791963424",
        "perihelion_argument": "17.85384621336194",
        "aphelion_distance": "2.189717848525469",
        "perihelion_time": "2458876.759863028603",
        "mean_anomaly": "60.15056036876589",
        "mean_motion": ".4861038773754531",
        "equinox": "J2000",
        "orbit_class": {
            "orbit_class_type": "APO",
            "orbit_class_description": "Near-Earth asteroid orbits which cross the Earth’s orbit similar to that of 1862 Apollo",
            "orbit_class_range": "a (semi-major axis) > 1.0 AU; q (perihelion) < 1.017 AU"
        }
    },
    "is_sentry_object": false
}